[{"OBJECT_NAME":"STARLINK-3851","OBJECT_ID":"2022-045P","EPOCH":"2025-12-04T12:39:54.118080","MEAN_MOTION":15.08850882,"ECCENTRICITY":0.0001591,"INCLINATION":53.2162,"RA_OF_ASC_NODE":266.3866,"ARG_OF_PERICENTER":80.6792,"MEAN_ANOMALY":279.438,"EPHEMERIS_TYPE":0,"CLASSIFICATION_TYPE":"U","NORAD_CAT_ID":52344,"ELEMENT_SET_NO":999,"REV_AT_EPOCH":20141,"BSTAR":1.6617e-6,"MEAN_MOTION_DOT":-2.62e-6,"MEAN_MOTION_DDOT":0},{"OBJECT_NAME":"STARLINK-3852","OBJECT_ID":"2022-045Q","EPOCH":"2025-12-04T05:21:27.586944","MEAN_MOTION":15.08856436,"ECCENTRICITY":0.0001303,"INCLINATION":53.216,"RA_OF_ASC_NODE":267.8461,"ARG_OF_PERICENTER":96.3471,"MEAN_ANOMALY":263.7669,"EPHEMERIS_TYPE":0,"CLASSIFICATION_TYPE":"U","NORAD_CAT_ID":52345,"ELEMENT_SET_NO":999,"REV_AT_EPOCH":20135,"BSTAR":-6.7761e-5,"MEAN_MOTION_DOT":-1.367e-5,"MEAN_MOTION_DDOT":0},{"OBJECT_NAME":"STARLINK-3812","OBJECT_ID":"2022-045R","EPOCH":"2025-12-04T04:33:44.481024","MEAN_MOTION":15.08858992,"ECCENTRICITY":0.0001467,"INCLINATION":53.2195,"RA_OF_ASC_NODE":267.8466,"ARG_OF_PERICENTER":85.4218,"MEAN_ANOMALY":274.6941,"EPHEMERIS_TYPE":0,"CLASSIFICATION_TYPE":"U","NORAD_CAT_ID":52346,"ELEMENT_SET_NO":999,"REV_AT_EPOCH":20136,"BSTAR":9.6826e-5,"MEAN_MOTION_DOT":1.254e-5,"MEAN_MOTION_DDOT":0},{"OBJECT_NAME":"STARLINK-3826","OBJECT_ID":"2022-045S","EPOCH":"2025-12-04T12:46:32.810016","MEAN_MOTION":15.08860339,"ECCENTRICITY":0.0001417,"INCLINATION":53.2174,"RA_OF_ASC_NODE":266.3072,"ARG_OF_PERICENTER":80.0622,"MEAN_ANOMALY":280.053,"EPHEMERIS_TYPE":0,"CLASSIFICATION_TYPE":"U","NORAD_CAT_ID":52347,"ELEMENT_SET_NO":999,"REV_AT_EPOCH":20141,"BSTAR":0.00018023,"MEAN_MOTION_DOT":2.583e-5,"MEAN_MOTION_DDOT":0},{"OBJECT_NAME":"STARLINK-3829","OBJECT_ID":"2022-045T","EPOCH":"2025-12-04T12:18:41.396832","MEAN_MOTION":15.08847428,"ECCENTRICITY":0.0001617,"INCLINATION":53.2192,"RA_OF_ASC_NODE":266.3882,"ARG_OF_PERICENTER":96.1053,"MEAN_ANOMALY":264.0123,"EPHEMERIS_TYPE":0,"CLASSIFICATION_TYPE":"U","NORAD_CAT_ID":52348,"ELEMENT_SET_NO":999,"REV_AT_EPOCH":20141,"BSTAR":0.00010337,"MEAN_MOTION_DOT":1.358e-5,"MEAN_MOTION_DDOT":0},{"OBJECT_NAME":"STARLINK-3819","OBJECT_ID":"2022-045U","EPOCH":"2025-12-04T12:34:34.857120","MEAN_MOTION":15.08855644,"ECCENTRICITY":0.0001399,"INCLINATION":53.2181,"RA_OF_ASC_NODE":266.3364,"ARG_OF_PERICENTER":88.7188,"MEAN_ANOMALY":271.3964,"EPHEMERIS_TYPE":0,"CLASSIFICATION_TYPE":"U","NORAD_CAT_ID":52349,"ELEMENT_SET_NO":999,"REV_AT_EPOCH":20141,"BSTAR":0.0001408,"MEAN_MOTION_DOT":1.955e-5,"MEAN_MOTION_DDOT":0},{"OBJECT_NAME":"STARLINK-3754","OBJECT_ID":"2022-045V","EPOCH":"2025-12-04T12:13:23.304000","MEAN_MOTION":15.08847308,"ECCENTRICITY":0.0001552,"INCLINATION":53.2188,"RA_OF_ASC_NODE":266.4022,"ARG_OF_PERICENTER":83.0985,"MEAN_ANOMALY":277.0184,"EPHEMERIS_TYPE":0,"CLASSIFICATION_TYPE":"U","NORAD_CAT_ID":52350,"ELEMENT_SET_NO":999,"REV_AT_EPOCH":20141,"BSTAR":6.915e-5,"MEAN_MOTION_DOT":8.13e-6,"MEAN_MOTION_DDOT":0},{"OBJECT_NAME":"STARLINK-3838","OBJECT_ID":"2022-045X","EPOCH":"2025-12-04T11:57:29.939616","MEAN_MOTION":15.08833013,"ECCENTRICITY":0.0001151,"INCLINATION":53.2179,"RA_OF_ASC_NODE":266.449,"ARG_OF_PERICENTER":98.3557,"MEAN_ANOMALY":261.7566,"EPHEMERIS_TYPE":0,"CLASSIFICATION_TYPE":"U","NORAD_CAT_ID":52352,"ELEMENT_SET_NO":999,"REV_AT_EPOCH":20141,"BSTAR":3.5531e-5,"MEAN_MOTION_DOT":2.78e-6,"MEAN_MOTION_DDOT":0},{"OBJECT_NAME":"STARLINK-3807","OBJECT_ID":"2022-045Y","EPOCH":"2025-12-04T12:08:06.891648","MEAN_MOTION":15.08838813,"ECCENTRICITY":0.0001414,"INCLINATION":53.2191,"RA_OF_ASC_NODE":266.4189,"ARG_OF_PERICENTER":89.656,"MEAN_ANOMALY":270.4594,"EPHEMERIS_TYPE":0,"CLASSIFICATION_TYPE":"U","NORAD_CAT_ID":52353,"ELEMENT_SET_NO":999,"REV_AT_EPOCH":20141,"BSTAR":7.8048e-5,"MEAN_MOTION_DOT":9.54e-6,"MEAN_MOTION_DDOT":0},{"OBJECT_NAME":"STARLINK-3877","OBJECT_ID":"2022-045AA","EPOCH":"2025-12-04T12:02:46.542048","MEAN_MOTION":15.08856811,"ECCENTRICITY":0.0001302,"INCLINATION":53.219,"RA_OF_ASC_NODE":266.4355,"ARG_OF_PERICENTER":87.5743,"MEAN_ANOMALY":272.5398,"EPHEMERIS_TYPE":0,"CLASSIFICATION_TYPE":"U","NORAD_CAT_ID":52355,"ELEMENT_SET_NO":999,"REV_AT_EPOCH":20141,"BSTAR":0.0001412,"MEAN_MOTION_DOT":1.961e-5,"MEAN_MOTION_DDOT":0},{"OBJECT_NAME":"STARLINK-3801","OBJECT_ID":"2022-045AB","EPOCH":"2025-12-04T05:25:20.925696","MEAN_MOTION":15.08852186,"ECCENTRICITY":0.0001296,"INCLINATION":53.2184,"RA_OF_ASC_NODE":267.6998,"ARG_OF_PERICENTER":96.0271,"MEAN_ANOMALY":264.0869,"EPHEMERIS_TYPE":0,"CLASSIFICATION_TYPE":"U","NORAD_CAT_ID":52356,"ELEMENT_SET_NO":999,"REV_AT_EPOCH":20137,"BSTAR":6.7196e-5,"MEAN_MOTION_DOT":7.82e-6,"MEAN_MOTION_DDOT":0},{"OBJECT_NAME":"STARLINK-3821","OBJECT_ID":"2022-045AC","EPOCH":"2025-12-04T11:52:11.335296","MEAN_MOTION":15.08846438,"ECCENTRICITY":0.0001298,"INCLINATION":53.2172,"RA_OF_ASC_NODE":266.465,"ARG_OF_PERICENTER":93.1411,"MEAN_ANOMALY":266.973,"EPHEMERIS_TYPE":0,"CLASSIFICATION_TYPE":"U","NORAD_CAT_ID":52357,"ELEMENT_SET_NO":999,"REV_AT_EPOCH":20141,"BSTAR":6.9889e-5,"MEAN_MOTION_DOT":8.25e-6,"MEAN_MOTION_DDOT":0},{"OBJECT_NAME":"STARLINK-3837","OBJECT_ID":"2022-045AD","EPOCH":"2025-12-04T13:01:04.814112","MEAN_MOTION":15.08858726,"ECCENTRICITY":0.0001246,"INCLINATION":53.217,"RA_OF_ASC_NODE":266.2489,"ARG_OF_PERICENTER":100.6428,"MEAN_ANOMALY":259.4705,"EPHEMERIS_TYPE":0,"CLASSIFICATION_TYPE":"U","NORAD_CAT_ID":52358,"ELEMENT_SET_NO":999,"REV_AT_EPOCH":20142,"BSTAR":0.00053112,"MEAN_MOTION_DOT":8.179e-5,"MEAN_MOTION_DDOT":0},{"OBJECT_NAME":"STARLINK-3853","OBJECT_ID":"2022-045AE","EPOCH":"2025-12-04T05:26:43.361664","MEAN_MOTION":15.08849964,"ECCENTRICITY":0.000176,"INCLINATION":53.2183,"RA_OF_ASC_NODE":267.6746,"ARG_OF_PERICENTER":99.3736,"MEAN_ANOMALY":260.7455,"EPHEMERIS_TYPE":0,"CLASSIFICATION_TYPE":"U","NORAD_CAT_ID":52359,"ELEMENT_SET_NO":999,"REV_AT_EPOCH":20137,"BSTAR":0.00012036,"MEAN_MOTION_DOT":1.628e-5,"MEAN_MOTION_DDOT":0},{"OBJECT_NAME":"STARLINK-3728","OBJECT_ID":"2022-045AG","EPOCH":"2025-12-04T16:22:27.384096","MEAN_MOTION":15.08832113,"ECCENTRICITY":0.0001396,"INCLINATION":53.2162,"RA_OF_ASC_NODE":265.6223,"ARG_OF_PERICENTER":86.1685,"MEAN_ANOMALY":273.9467,"EPHEMERIS_TYPE":0,"CLASSIFICATION_TYPE":"U","NORAD_CAT_ID":52361,"ELEMENT_SET_NO":999,"REV_AT_EPOCH":20144,"BSTAR":0.00071098,"MEAN_MOTION_DOT":0.00011043,"MEAN_MOTION_DDOT":0},{"OBJECT_NAME":"STARLINK-3848","OBJECT_ID":"2022-045AH","EPOCH":"2025-12-04T01:38:48.825024","MEAN_MOTION":15.08844907,"ECCENTRICITY":0.00014307,"INCLINATION":53.217,"RA_OF_ASC_NODE":258.3753,"ARG_OF_PERICENTER":94.7059,"MEAN_ANOMALY":265.4097,"EPHEMERIS_TYPE":0,"CLASSIFICATION_TYPE":"U","NORAD_CAT_ID":52362,"ELEMENT_SET_NO":999,"REV_AT_EPOCH":20148,"BSTAR":3.5181746e-5,"MEAN_MOTION_DOT":2.72e-6,"MEAN_MOTION_DDOT":0},{"OBJECT_NAME":"STARLINK-3830","OBJECT_ID":"2022-045AJ","EPOCH":"2025-12-04T05:09:27.512064","MEAN_MOTION":15.08858442,"ECCENTRICITY":0.0001698,"INCLINATION":53.2171,"RA_OF_ASC_NODE":267.7173,"ARG_OF_PERICENTER":100.64,"MEAN_ANOMALY":259.4784,"EPHEMERIS_TYPE":0,"CLASSIFICATION_TYPE":"U","NORAD_CAT_ID":52363,"ELEMENT_SET_NO":999,"REV_AT_EPOCH":20137,"BSTAR":0.00086445,"MEAN_MOTION_DOT":0.00013503,"MEAN_MOTION_DDOT":0}]
