STARLINK-3851           
1 52344U 22045P   25338.52770970 -.00000262  00000+0  16617-5 0  9995
2 52344  53.2162 266.3866 0001591  80.6792 279.4380 15.08850882201410
STARLINK-3852           
1 52345U 22045Q   25338.22323596 -.00001367  00000+0 -67761-4 0  9994
2 52345  53.2160 267.8461 0001303  96.3471 263.7669 15.08856436201355
STARLINK-3812           
1 52346U 22045R   25338.19009816  .00001254  00000+0  96826-4 0  9994
2 52346  53.2195 267.8466 0001467  85.4218 274.6941 15.08858992201362
STARLINK-3826           
1 52347U 22045S   25338.53232419  .00002583  00000+0  18023-3 0  9998
2 52347  53.2174 266.3072 0001417  80.0622 280.0530 15.08860339201411
STARLINK-3829           
1 52348U 22045T   25338.51297913  .00001358  00000+0  10337-3 0  9996
2 52348  53.2192 266.3882 0001617  96.1053 264.0123 15.08847428201413
STARLINK-3819           
1 52349U 22045U   25338.52401455  .00001955  00000+0  14080-3 0  9998
2 52349  53.2181 266.3364 0001399  88.7188 271.3964 15.08855644201413
STARLINK-3754           
1 52350U 22045V   25338.50929750  .00000813  00000+0  69150-4 0  9992
2 52350  53.2188 266.4022 0001552  83.0985 277.0184 15.08847308201413
STARLINK-3838           
1 52352U 22045X   25338.49826319  .00000278  00000+0  35531-4 0  9990
2 52352  53.2179 266.4490 0001151  98.3557 261.7566 15.08833013201415
STARLINK-3807           
1 52353U 22045Y   25338.50563532  .00000954  00000+0  78048-4 0  9999
2 52353  53.2191 266.4189 0001414  89.6560 270.4594 15.08838813201415
STARLINK-3877           
1 52355U 22045AA  25338.50192757  .00001961  00000+0  14120-3 0  9997
2 52355  53.2190 266.4355 0001302  87.5743 272.5398 15.08856811201410
STARLINK-3801           
1 52356U 22045AB  25338.22593664  .00000782  00000+0  67196-4 0  9991
2 52356  53.2184 267.6998 0001296  96.0271 264.0869 15.08852186201378
STARLINK-3821           
1 52357U 22045AC  25338.49457564  .00000825  00000+0  69889-4 0  9998
2 52357  53.2172 266.4650 0001298  93.1411 266.9730 15.08846438201410
STARLINK-3837           
1 52358U 22045AD  25338.54241683  .00008179  00000+0  53112-3 0  9999
2 52358  53.2170 266.2489 0001246 100.6428 259.4705 15.08858726201425
STARLINK-3853           
1 52359U 22045AE  25338.22689076  .00001628  00000+0  12036-3 0  9999
2 52359  53.2183 267.6746 0001760  99.3736 260.7455 15.08849964201373
STARLINK-3728           
1 52361U 22045AG  25338.68226139  .00011043  00000+0  71098-3 0  9994
2 52361  53.2162 265.6223 0001396  86.1685 273.9467 15.08832113201448
STARLINK-3848           
1 52362U 22045AH  25338.06862066  .00000272  00000+0  35182-4 0  9999
2 52362  53.2170 258.3753 0001430  94.7059 265.4097 15.08844907201487
STARLINK-3830           
1 52363U 22045AJ  25338.21490176  .00013503  00000+0  86445-3 0  9994
2 52363  53.2171 267.7173 0001698 100.6400 259.4784 15.08858442201375
